{
    "links": {
        "self": "http://www.neowsapp.com/rest/v1/neo/3612170?api_key=iIulBulltgU6a56xZRHN4H3l9WmuAYTsLGpBGhQ2"
    },
    "id": "3612170",
    "neo_reference_id": "3612170",
    "name": "(2012 UW9)",
    "designation": "2012 UW9",
    "nasa_jpl_url": "http://ssd.jpl.nasa.gov/sbdb.cgi?sstr=3612170",
    "absolute_magnitude_h": 25.7,
    "estimated_diameter": {
        "kilometers": {
            "estimated_diameter_min": 0.0192555078,
            "estimated_diameter_max": 0.0430566244
        },
        "meters": {
            "estimated_diameter_min": 19.2555078188,
            "estimated_diameter_max": 43.0566244241
        },
        "miles": {
            "estimated_diameter_min": 0.0119648141,
            "estimated_diameter_max": 0.0267541378
        },
        "feet": {
            "estimated_diameter_min": 63.1742402722,
            "estimated_diameter_max": 141.2618956756
        }
    },
    "is_potentially_hazardous_asteroid": false,
    "close_approach_data": [
        {
            "close_approach_date": "2012-10-29",
            "close_approach_date_full": "2012-Oct-29 03:21",
            "epoch_date_close_approach": 1351480860000,
            "relative_velocity": {
                "kilometers_per_second": "9.8534212016",
                "kilometers_per_hour": "35472.3163256777",
                "miles_per_hour": "22041.1178858079"
            },
            "miss_distance": {
                "astronomical": "0.0241710756",
                "lunar": "9.4025484084",
                "kilometers": "3615941.425368972",
                "miles": "2246841.8142849336"
            },
            "orbiting_body": "Earth"
        }
    ],
    "orbital_data": {
        "orbit_id": "4",
        "orbit_determination_date": "2017-04-06 08:48:27",
        "first_observation_date": "2012-10-17",
        "last_observation_date": "2012-10-18",
        "data_arc_in_days": 1,
        "observations_used": 14,
        "orbit_uncertainty": "9",
        "minimum_orbit_intersection": ".0203308",
        "jupiter_tisserand_invariant": "3.919",
        "epoch_osculation": "2456218.5",
        "eccentricity": ".4925170743367918",
        "semi_major_axis": "1.791352789645608",
        "inclination": "6.646983334850656",
        "ascending_node_longitude": "24.86502280717747",
        "orbital_period": "875.7297697072294",
        "perihelion_distance": ".9090809545843028",
        "perihelion_argument": "53.27435872036887",
        "aphelion_distance": "2.673624624706914",
        "perihelion_time": "2456262.451015210329",
        "mean_anomaly": "341.9323654133534",
        "mean_motion": ".4110857166821608",
        "equinox": "J2000",
        "orbit_class": {
            "orbit_class_type": "APO",
            "orbit_class_description": "Near-Earth asteroid orbits which cross the Earth’s orbit similar to that of 1862 Apollo",
            "orbit_class_range": "a (semi-major axis) > 1.0 AU; q (perihelion) < 1.017 AU"
        }
    },
    "is_sentry_object": false
}